ONEWEB-0312             
1 49098U 21075Z   26091.18763759  .00000094  00000+0  20940-3 0  9999
2 49098  87.9183  21.1658 0001673  67.6037 292.5272 13.17650230223461
ONEWEB-0313             
1 49099U 21075AA  26091.19256035  .00000105  00000+0  23694-3 0  9997
2 49099  87.9185  21.1713 0001734  77.1497 282.9828 13.17650800223452
ONEWEB-0314             
1 49100U 21075AB  26091.15894255  .00000028  00000+0  38866-4 0  9990
2 49100  87.9189  21.1424 0001621  67.0618 293.0684 13.17650516223420
ONEWEB-0315             
1 49101U 21075AC  26091.20896662  .00000507  00000+0  13735-2 0  9999
2 49101  87.9019   5.9279 0001398  82.4176 277.7111 13.12444797225076
ONEWEB-0316             
1 49102U 21075AD  26091.14422251  .00000081  00000+0  17232-3 0  9996
2 49102  87.9236 350.7733 0001685  79.7835 280.3487 13.18687199227051
ONEWEB-0317             
1 49103U 21075AE  26091.21235132  .00000447  00000+0  12066-2 0  9990
2 49103  87.9019   5.9499 0002533  73.2715 286.8691 13.12444636225099
ONEWEB-0318             
1 49104U 21075AF  26091.14092503  .00000099  00000+0  21826-3 0  9994
2 49104  87.9245 350.7686 0001505  81.3235 278.8068 13.18687752227012
ONEWEB-0319             
1 49105U 21075AG  26091.17412491  .00000062  00000+0  12722-3 0  9995
2 49105  87.9182  21.1624 0001279  86.9617 273.1661 13.17651222223461
ONEWEB-0323             
1 49106U 21075AH  26091.19373049  .00000118  00000+0  29305-3 0  9990
2 49106  87.9020   5.9353 0001180  78.0518 282.0743 13.12446347224450
ONEWEB-0329             
1 49107U 21075AJ  26091.18257501  .00000029  00000+0  41138-4 0  9994
2 49107  87.9183  21.1613 0001723  74.3054 285.8268 13.17649896223447
ONEWEB-0330             
1 49108U 21075AK  26091.05446038  .00007798  00000+0  20048-1 0  9990
2 49108  87.9200  21.2034 0002063  69.9055 290.2299 13.17602279223465
ONEWEB-0292             
1 49186U 21083A   26091.15000421  .00000029  00000+0  43760-4 0  9997
2 49186  87.8999 335.5837 0001557  82.7639 277.3667 13.13469239220819
ONEWEB-0303             
1 49187U 21083B   26091.21350345  .00000084  00000+0  18064-3 0  9997
2 49187  87.9240 350.7570 0001586  79.3052 280.8258 13.18688046219835
ONEWEB-0306             
1 49188U 21083C   26091.20360814 -.00000145  00000+0 -40044-3 0  9992
2 49188  87.9245 350.7425 0001979  77.4863 282.6490 13.18686363219877
ONEWEB-0307             
1 49189U 21083D   26091.14406737  .00000136  00000+0  33757-3 0  9992
2 49189  87.9010 335.5737 0001552  78.2638 281.8665 13.13470726220811
ONEWEB-0320             
1 49190U 21083E   26091.15141667  .00001619  00000+0  41057-2 0  9991
2 49190  87.9232 350.7804 0001496  76.0596 284.0702 13.18147722219827
