[{"OBJECT_NAME":"ONEWEB-0312","OBJECT_ID":"2021-075Z","EPOCH":"2026-04-01T04:30:11.887776","MEAN_MOTION":13.1765023,"ECCENTRICITY":0.0001673,"INCLINATION":87.9183,"RA_OF_ASC_NODE":21.1658,"ARG_OF_PERICENTER":67.6037,"MEAN_ANOMALY":292.5272,"EPHEMERIS_TYPE":0,"CLASSIFICATION_TYPE":"U","NORAD_CAT_ID":49098,"ELEMENT_SET_NO":999,"REV_AT_EPOCH":22346,"BSTAR":0.0002094,"MEAN_MOTION_DOT":9.4e-07,"MEAN_MOTION_DDOT":0.0},{"OBJECT_NAME":"ONEWEB-0313","OBJECT_ID":"2021-075AA","EPOCH":"2026-04-01T04:37:17.214240","MEAN_MOTION":13.176508,"ECCENTRICITY":0.0001734,"INCLINATION":87.9185,"RA_OF_ASC_NODE":21.1713,"ARG_OF_PERICENTER":77.1497,"MEAN_ANOMALY":282.9828,"EPHEMERIS_TYPE":0,"CLASSIFICATION_TYPE":"U","NORAD_CAT_ID":49099,"ELEMENT_SET_NO":999,"REV_AT_EPOCH":22345,"BSTAR":0.00023694000000000002,"MEAN_MOTION_DOT":1.05e-06,"MEAN_MOTION_DDOT":0.0},{"OBJECT_NAME":"ONEWEB-0314","OBJECT_ID":"2021-075AB","EPOCH":"2026-04-01T03:48:52.636320","MEAN_MOTION":13.17650516,"ECCENTRICITY":0.0001621,"INCLINATION":87.9189,"RA_OF_ASC_NODE":21.1424,"ARG_OF_PERICENTER":67.0618,"MEAN_ANOMALY":293.0684,"EPHEMERIS_TYPE":0,"CLASSIFICATION_TYPE":"U","NORAD_CAT_ID":49100,"ELEMENT_SET_NO":999,"REV_AT_EPOCH":22342,"BSTAR":3.8866000000000004e-05,"MEAN_MOTION_DOT":2.8e-07,"MEAN_MOTION_DDOT":0.0},{"OBJECT_NAME":"ONEWEB-0315","OBJECT_ID":"2021-075AC","EPOCH":"2026-04-01T05:00:54.715968","MEAN_MOTION":13.12444797,"ECCENTRICITY":0.0001398,"INCLINATION":87.9019,"RA_OF_ASC_NODE":5.9279,"ARG_OF_PERICENTER":82.4176,"MEAN_ANOMALY":277.7111,"EPHEMERIS_TYPE":0,"CLASSIFICATION_TYPE":"U","NORAD_CAT_ID":49101,"ELEMENT_SET_NO":999,"REV_AT_EPOCH":22507,"BSTAR":0.0013735,"MEAN_MOTION_DOT":5.07e-06,"MEAN_MOTION_DDOT":0.0},{"OBJECT_NAME":"ONEWEB-0316","OBJECT_ID":"2021-075AD","EPOCH":"2026-04-01T03:27:40.824864","MEAN_MOTION":13.18687199,"ECCENTRICITY":0.0001685,"INCLINATION":87.9236,"RA_OF_ASC_NODE":350.7733,"ARG_OF_PERICENTER":79.7835,"MEAN_ANOMALY":280.3487,"EPHEMERIS_TYPE":0,"CLASSIFICATION_TYPE":"U","NORAD_CAT_ID":49102,"ELEMENT_SET_NO":999,"REV_AT_EPOCH":22705,"BSTAR":0.00017232,"MEAN_MOTION_DOT":8.1e-07,"MEAN_MOTION_DDOT":0.0},{"OBJECT_NAME":"ONEWEB-0317","OBJECT_ID":"2021-075AE","EPOCH":"2026-04-01T05:05:47.154048","MEAN_MOTION":13.12444636,"ECCENTRICITY":0.0002533,"INCLINATION":87.9019,"RA_OF_ASC_NODE":5.9499,"ARG_OF_PERICENTER":73.2715,"MEAN_ANOMALY":286.8691,"EPHEMERIS_TYPE":0,"CLASSIFICATION_TYPE":"U","NORAD_CAT_ID":49103,"ELEMENT_SET_NO":999,"REV_AT_EPOCH":22509,"BSTAR":0.0012066000000000002,"MEAN_MOTION_DOT":4.47e-06,"MEAN_MOTION_DDOT":0.0},{"OBJECT_NAME":"ONEWEB-0318","OBJECT_ID":"2021-075AF","EPOCH":"2026-04-01T03:22:55.922592","MEAN_MOTION":13.18687752,"ECCENTRICITY":0.0001505,"INCLINATION":87.9245,"RA_OF_ASC_NODE":350.7686,"ARG_OF_PERICENTER":81.3235,"MEAN_ANOMALY":278.8068,"EPHEMERIS_TYPE":0,"CLASSIFICATION_TYPE":"U","NORAD_CAT_ID":49104,"ELEMENT_SET_NO":999,"REV_AT_EPOCH":22701,"BSTAR":0.00021826000000000001,"MEAN_MOTION_DOT":9.9e-07,"MEAN_MOTION_DDOT":0.0},{"OBJECT_NAME":"ONEWEB-0319","OBJECT_ID":"2021-075AG","EPOCH":"2026-04-01T04:10:44.392224","MEAN_MOTION":13.17651222,"ECCENTRICITY":0.0001279,"INCLINATION":87.9182,"RA_OF_ASC_NODE":21.1624,"ARG_OF_PERICENTER":86.9617,"MEAN_ANOMALY":273.1661,"EPHEMERIS_TYPE":0,"CLASSIFICATION_TYPE":"U","NORAD_CAT_ID":49105,"ELEMENT_SET_NO":999,"REV_AT_EPOCH":22346,"BSTAR":0.00012722,"MEAN_MOTION_DOT":6.2e-07,"MEAN_MOTION_DDOT":0.0},{"OBJECT_NAME":"ONEWEB-0323","OBJECT_ID":"2021-075AH","EPOCH":"2026-04-01T04:38:58.314336","MEAN_MOTION":13.12446347,"ECCENTRICITY":0.000118,"INCLINATION":87.902,"RA_OF_ASC_NODE":5.9353,"ARG_OF_PERICENTER":78.0518,"MEAN_ANOMALY":282.0743,"EPHEMERIS_TYPE":0,"CLASSIFICATION_TYPE":"U","NORAD_CAT_ID":49106,"ELEMENT_SET_NO":999,"REV_AT_EPOCH":22445,"BSTAR":0.00029305,"MEAN_MOTION_DOT":1.18e-06,"MEAN_MOTION_DDOT":0.0},{"OBJECT_NAME":"ONEWEB-0329","OBJECT_ID":"2021-075AJ","EPOCH":"2026-04-01T04:22:54.480864","MEAN_MOTION":13.17649896,"ECCENTRICITY":0.0001723,"INCLINATION":87.9183,"RA_OF_ASC_NODE":21.1613,"ARG_OF_PERICENTER":74.3054,"MEAN_ANOMALY":285.8268,"EPHEMERIS_TYPE":0,"CLASSIFICATION_TYPE":"U","NORAD_CAT_ID":49107,"ELEMENT_SET_NO":999,"REV_AT_EPOCH":22344,"BSTAR":4.1138000000000005e-05,"MEAN_MOTION_DOT":2.9e-07,"MEAN_MOTION_DDOT":0.0},{"OBJECT_NAME":"ONEWEB-0330","OBJECT_ID":"2021-075AK","EPOCH":"2026-04-01T01:18:25.376832","MEAN_MOTION":13.17602279,"ECCENTRICITY":0.0002063,"INCLINATION":87.92,"RA_OF_ASC_NODE":21.2034,"ARG_OF_PERICENTER":69.9055,"MEAN_ANOMALY":290.2299,"EPHEMERIS_TYPE":0,"CLASSIFICATION_TYPE":"U","NORAD_CAT_ID":49108,"ELEMENT_SET_NO":999,"REV_AT_EPOCH":22346,"BSTAR":0.020048,"MEAN_MOTION_DOT":7.798e-05,"MEAN_MOTION_DDOT":0.0},{"OBJECT_NAME":"ONEWEB-0292","OBJECT_ID":"2021-083A","EPOCH":"2026-04-01T03:36:00.363744","MEAN_MOTION":13.13469239,"ECCENTRICITY":0.0001557,"INCLINATION":87.8999,"RA_OF_ASC_NODE":335.5837,"ARG_OF_PERICENTER":82.7639,"MEAN_ANOMALY":277.3667,"EPHEMERIS_TYPE":0,"CLASSIFICATION_TYPE":"U","NORAD_CAT_ID":49186,"ELEMENT_SET_NO":999,"REV_AT_EPOCH":22081,"BSTAR":4.376e-05,"MEAN_MOTION_DOT":2.9e-07,"MEAN_MOTION_DDOT":0.0},{"OBJECT_NAME":"ONEWEB-0303","OBJECT_ID":"2021-083B","EPOCH":"2026-04-01T05:07:26.698080","MEAN_MOTION":13.18688046,"ECCENTRICITY":0.0001586,"INCLINATION":87.924,"RA_OF_ASC_NODE":350.757,"ARG_OF_PERICENTER":79.3052,"MEAN_ANOMALY":280.8258,"EPHEMERIS_TYPE":0,"CLASSIFICATION_TYPE":"U","NORAD_CAT_ID":49187,"ELEMENT_SET_NO":999,"REV_AT_EPOCH":21983,"BSTAR":0.00018064,"MEAN_MOTION_DOT":8.4e-07,"MEAN_MOTION_DDOT":0.0},{"OBJECT_NAME":"ONEWEB-0306","OBJECT_ID":"2021-083C","EPOCH":"2026-04-01T04:53:11.743296","MEAN_MOTION":13.18686363,"ECCENTRICITY":0.0001979,"INCLINATION":87.9245,"RA_OF_ASC_NODE":350.7425,"ARG_OF_PERICENTER":77.4863,"MEAN_ANOMALY":282.649,"EPHEMERIS_TYPE":0,"CLASSIFICATION_TYPE":"U","NORAD_CAT_ID":49188,"ELEMENT_SET_NO":999,"REV_AT_EPOCH":21987,"BSTAR":-0.00040044,"MEAN_MOTION_DOT":-1.45e-06,"MEAN_MOTION_DDOT":0.0},{"OBJECT_NAME":"ONEWEB-0307","OBJECT_ID":"2021-083D","EPOCH":"2026-04-01T03:27:27.420768","MEAN_MOTION":13.13470726,"ECCENTRICITY":0.0001552,"INCLINATION":87.901,"RA_OF_ASC_NODE":335.5737,"ARG_OF_PERICENTER":78.2638,"MEAN_ANOMALY":281.8665,"EPHEMERIS_TYPE":0,"CLASSIFICATION_TYPE":"U","NORAD_CAT_ID":49189,"ELEMENT_SET_NO":999,"REV_AT_EPOCH":22081,"BSTAR":0.00033757,"MEAN_MOTION_DOT":1.36e-06,"MEAN_MOTION_DDOT":0.0},{"OBJECT_NAME":"ONEWEB-0320","OBJECT_ID":"2021-083E","EPOCH":"2026-04-01T03:38:02.400288","MEAN_MOTION":13.18147722,"ECCENTRICITY":0.0001496,"INCLINATION":87.9232,"RA_OF_ASC_NODE":350.7804,"ARG_OF_PERICENTER":76.0596,"MEAN_ANOMALY":284.0702,"EPHEMERIS_TYPE":0,"CLASSIFICATION_TYPE":"U","NORAD_CAT_ID":49190,"ELEMENT_SET_NO":999,"REV_AT_EPOCH":21982,"BSTAR":0.0041057,"MEAN_MOTION_DOT":1.619e-05,"MEAN_MOTION_DDOT":0.0}]